{
  "norad_id": 67550,
  "name": "STARLINK-36563",
  "history": [
    {
      "epoch": "2026-03-28T15:04:01.936416Z",
      "apogee_km": 344.6957151355691,
      "perigee_km": 342.8176180451237,
      "latitude_deg": 1.1755210147847537e-05,
      "longitude_deg": -78.57559381817357,
      "height_km": 347.1875752497922,
      "semi_major_axis_km": 6721.893666590346,
      "eccentricity": 0.0001397,
      "inclination_deg": 97.2857,
      "raan_deg": 333.478,
      "arg_perigee_deg": 106.3618,
      "mean_anomaly_deg": 253.7801,
      "mean_motion_rev_day": 15.7530737
    },
    {
      "epoch": "2026-03-29T04:47:21.158016Z",
      "apogee_km": 345.02216854471953,
      "perigee_km": 342.8079246005782,
      "latitude_deg": 1.0107650413701525e-05,
      "longitude_deg": 75.63097358588217,
      "height_km": 347.0709941810038,
      "semi_major_axis_km": 6722.052046572649,
      "eccentricity": 0.0001647,
      "inclination_deg": 97.2853,
      "raan_deg": 334.0782,
      "arg_perigee_deg": 89.4935,
      "mean_anomaly_deg": 270.6519,
      "mean_motion_rev_day": 15.75251696
    },
    {
      "epoch": "2026-03-29T21:33:38.013696Z",
      "apogee_km": 344.58119871279996,
      "perigee_km": 343.0821996928771,
      "latitude_deg": 2.6884143898168802e-06,
      "longitude_deg": -175.89503193655267,
      "height_km": 346.2867562671432,
      "semi_major_axis_km": 6721.968699202838,
      "eccentricity": 0.0001115,
      "inclination_deg": 97.2854,
      "raan_deg": 334.8112,
      "arg_perigee_deg": 342.2133,
      "mean_anomaly_deg": 17.9093,
      "mean_motion_rev_day": 15.75280994
    },
    {
      "epoch": "2026-03-30T05:11:02.425056Z",
      "apogee_km": 345.0779608848561,
      "perigee_km": 342.6241663621113,
      "latitude_deg": 4.243321747381126e-05,
      "longitude_deg": 69.77346544440304,
      "height_km": 347.2505007763163,
      "semi_major_axis_km": 6721.988063623483,
      "eccentricity": 0.00018252,
      "inclination_deg": 97.2851,
      "raan_deg": 335.1445,
      "arg_perigee_deg": 100.9886,
      "mean_anomaly_deg": 259.1585,
      "mean_motion_rev_day": 15.75274187
    },
    {
      "epoch": "2026-03-30T09:45:29.181600Z",
      "apogee_km": 345.8997810738165,
      "perigee_km": 342.0782524332917,
      "latitude_deg": -5.551853881675384e-05,
      "longitude_deg": 1.1741409439221047,
      "height_km": 346.65629732354574,
      "semi_major_axis_km": 6722.126016753554,
      "eccentricity": 0.00028425,
      "inclination_deg": 97.2853,
      "raan_deg": 335.3445,
      "arg_perigee_deg": 74.9434,
      "mean_anomaly_deg": 285.2145,
      "mean_motion_rev_day": 15.75225695
    }
  ]
}